TRANSIT 16 [?]          
1 02807U 67048A   23031.48373556  .00000132  00000+0  18977-3 0  9992
2 02807  89.6587  28.6256 0018339 260.9616 216.5642 13.50356995741548
TRANSIT 17 [?]          
1 02965U 67092A   23031.18530778  .00000093  00000+0  12036-3 0  9990
2 02965  89.2318 105.8020 0048535  36.8953 341.3516 13.53068637729430
TRANSIT 18 [?]          
1 03133U 68012A   23031.13508321  .00000112  00000+0  15662-3 0  9995
2 03133  90.0097 271.7388 0073964 323.1591 191.7163 13.51197359427832
NNSS 19 [?]             
1 04507U 70067A   23031.47914700  .00000149  00000+0  19367-3 0  9999
2 04507  89.9315 237.6987 0174192  83.9421 278.1549 13.50876607580941
NNSS O-20 [?]           
1 06909U 73081A   23031.60411561  .00000195  00000+0  19225-3 0  9992
2 06909  89.8214 273.1352 0155651 334.3296  25.0196 13.70752320660267
TRANSAT [?]             
1 10457U 77106A   23031.20969022  .00000068  00000+0  92152-4 0  9993
2 10457  89.6738 115.1221 0023964 334.4878  53.7236 13.48708168226365
NOVA I [?]              
1 12458U 81044A   23031.15572199  .00000056  00000+0  11012-3 0  9993
2 12458  89.8819 105.1436 0016373 108.8990 279.6355 13.23089346 13460
NOVA 3 [?]              
1 15362U 84110A   23031.54658503  .00000081  00000+0  17389-3 0  9995
2 15362  90.1005  69.1698 0031014 336.7372 135.7923 13.22855644848665
OSCAR 30 [?]            
1 15935U 85066A   23031.11540035  .00000086  00000+0  13776-3 0  9996
2 15935  90.1775  81.8909 0169687 155.7720 258.7982 13.35790355824795
OSCAR 24 [?]            
1 15936U 85066B   23031.52912418  .00000080  00000+0  12787-3 0  9995
2 15936  90.1743  73.7982 0170099 160.4228 325.7625 13.35649220826769
POLAR BEAR [?]          
1 17070U 86088A   23031.50752780  .00000107  00000+0  10009-3 0  9998
2 17070  89.5723 227.2898 0040362  38.3411  18.4972 13.74907920816013
OSCAR 27 [?]            
1 18361U 87080A   23031.45457283  .00000107  00000+0  16561-3 0  9998
2 18361  90.3349  41.8513 0103670 341.8253  17.9199 13.44600040734950
OSCAR 29 [?]            
1 18362U 87080B   23031.50738108  .00000068  00000+0  10066-3 0  9993
2 18362  90.3361  42.2040 0106055   2.4652 109.1924 13.44184397734534
OSCAR 23 [?]            
1 19070U 88033A   23031.34250628  .00000085  00000+0  15587-3 0  9999
2 19070  90.3281 344.0180 0188705 209.6879 306.7064 13.27549835683686
OSCAR 32 [?]            
1 19071U 88033B   23031.30698235  .00000056  00000+0  96619-4 0  9990
2 19071  90.3282 344.1076 0187354 197.4781 329.8058 13.27728538683787
NOVA 11 [?]             
1 19223U 88052A   23031.54882382  .00000057  00000+0  11442-3 0  9995
2 19223  89.9742  80.3148 0031089  20.4343 102.9660 13.22767966671163
OSCAR 25 [?]            
1 19419U 88074A   23031.53348612  .00000117  00000+0  18706-3 0  9995
2 19419  90.0068  18.0336 0096141 351.7658 124.1700 13.42329632686039
OSCAR 31 [?]            
1 19420U 88074B   23031.54753480  .00000104  00000+0  16393-3 0  9997
2 19420  90.0081  18.2346 0094132 345.8764 137.3921 13.42336147686141
